{"type": "FeatureCollection", "features": [ {"type": "Feature", "properties": {"norad_id": 40793, "name": "COSMOS 2251 DEB", "group": "cosmos-2251-debris", "lat": 6.688552941094032, "lon": -23.827148363112, "alt_km": 994.2144817214112, "timestamp": "2025-12-16T17:51:11.330824+00:00", "meta": {"OBJECT_NAME": "COSMOS 2251 DEB", "OBJECT_ID": "1993-036BVW", "EPOCH": "2025-11-17T22:59:08.433600", "MEAN_MOTION": 14.0559149, "ECCENTRICITY": 0.02150611, "INCLINATION": 73.9793, "RA_OF_ASC_NODE": 208.5839, "ARG_OF_PERICENTER": 10.058, "MEAN_ANOMALY": 350.4754, "EPHEMERIS_TYPE": 0, "CLASSIFICATION_TYPE": "U", "NORAD_CAT_ID": 40793, "ELEMENT_SET_NO": 999, "REV_AT_EPOCH": 67897, "BSTAR": 0.0015211732, "MEAN_MOTION_DOT": 3.024e-05, "MEAN_MOTION_DDOT": 0}, "tle": {"line1": "1 40793U 93036BVW 25321.95773650  .00003024  00000+0  15212-2 0  9990", "line2": "2 40793  73.9793 208.5839 0215061  10.0580 350.4754 14.05591490678970"}}, "geometry": {"type": "Point", "coordinates": [-23.827148363112, 6.688552941094032]}}, {"type": "Feature", "properties": {"norad_id": 40794, "name": "COSMOS 2251 DEB", "group": "cosmos-2251-debris", "lat": 69.05769582799645, "lon": 164.83008589692275, "alt_km": 587.5807901247845, "timestamp": "2025-12-16T17:51:11.330834+00:00", "meta": {"OBJECT_NAME": "COSMOS 2251 DEB", "OBJECT_ID": "1993-036BVX", "EPOCH": "2025-12-13T15:37:41.141568", "MEAN_MOTION": 14.93159868, "ECCENTRICITY": 0.00107848, "INCLINATION": 73.9763, "RA_OF_ASC_NODE": 122.399, "ARG_OF_PERICENTER": 261.0962, "MEAN_ANOMALY": 116.104, "EPHEMERIS_TYPE": 0, "CLASSIFICATION_TYPE": "U", "NORAD_CAT_ID": 40794, "ELEMENT_SET_NO": 999, "REV_AT_EPOCH": 61938, "BSTAR": 0.0047306735, "MEAN_MOTION_DOT": 0.00049759, "MEAN_MOTION_DDOT": 0}, "tle": {"line1": "1 40794U 93036BVX 25347.65117062  .00049759  00000+0  47307-2 0  9990", "line2": "2 40794  73.9763 122.3990 0010784 261.0962 116.1040 14.93159868619387"}}, "geometry": {"type": "Point", "coordinates": [164.83008589692275, 69.05769582799645]}}, {"type": "Feature", "properties": {"norad_id": 40796, "name": "COSMOS 2251 DEB", "group": "cosmos-2251-debris", "lat": -46.67425993791728, "lon": 116.57438303105715, "alt_km": 600.4326213164723, "timestamp": "2025-12-16T17:51:11.330845+00:00", "meta": {"OBJECT_NAME": "COSMOS 2251 DEB", "OBJECT_ID": "1993-036BVZ", "EPOCH": "2025-12-12T16:55:09.916896", "MEAN_MOTION": 14.81698665, "ECCENTRICITY": 0.00560879, "INCLINATION": 74.0118, "RA_OF_ASC_NODE": 142.2573, "ARG_OF_PERICENTER": 278.9039, "MEAN_ANOMALY": 95.9751, "EPHEMERIS_TYPE": 0, "CLASSIFICATION_TYPE": "U", "NORAD_CAT_ID": 40796, "ELEMENT_SET_NO": 999, "REV_AT_EPOCH": 76158, "BSTAR": 0.0013346453, "MEAN_MOTION_DOT": 0.00010785, "MEAN_MOTION_DDOT": 0}, "tle": {"line1": "1 40796U 93036BVZ 25346.70497589  .00010785  00000+0  13346-2 0  9995", "line2": "2 40796  74.0118 142.2573 0056087 278.9039  95.9751 14.81698665761584"}}, "geometry": {"type": "Point", "coordinates": [116.57438303105715, -46.67425993791728]}}, {"type": "Feature", "properties": {"norad_id": 40797, "name": "COSMOS 2251 DEB", "group": "cosmos-2251-debris", "lat": 69.69414197526271, "lon": 138.2057751599013, "alt_km": 516.1664644122502, "timestamp": "2025-12-16T17:51:11.330855+00:00", "meta": {"OBJECT_NAME": "COSMOS 2251 DEB", "OBJECT_ID": "1993-036BWA", "EPOCH": "2025-11-19T18:43:16.602528", "MEAN_MOTION": 15.10509474, "ECCENTRICITY": 0.00703947, "INCLINATION": 73.92, "RA_OF_ASC_NODE": 143.0892, "ARG_OF_PERICENTER": 60.6639, "MEAN_ANOMALY": 300.156, "EPHEMERIS_TYPE": 0, "CLASSIFICATION_TYPE": "U", "NORAD_CAT_ID": 40797, "ELEMENT_SET_NO": 999, "REV_AT_EPOCH": 64297, "BSTAR": 0.00072810385, "MEAN_MOTION_DOT": 0.00012707, "MEAN_MOTION_DDOT": 0}, "tle": {"line1": "1 40797U 93036BWA 25323.78005327  .00012707  00000+0  72810-3 0  9992", "line2": "2 40797  73.9200 143.0892 0070394  60.6639 300.1560 15.10509474642979"}}, "geometry": {"type": "Point", "coordinates": [138.2057751599013, 69.69414197526271]}}, {"type": "Feature", "properties": {"norad_id": 40799, "name": "COSMOS 2251 DEB", "group": "cosmos-2251-debris", "lat": -56.342247916956715, "lon": -64.12776287994653, "alt_km": 584.6608461422338, "timestamp": "2025-12-16T17:51:11.330865+00:00", "meta": {"OBJECT_NAME": "COSMOS 2251 DEB", "OBJECT_ID": "1993-036BWC", "EPOCH": "2025-12-15T13:30:14.400288", "MEAN_MOTION": 14.9668839, "ECCENTRICITY": 0.01192138, "INCLINATION": 73.9261, "RA_OF_ASC_NODE": 92.6157, "ARG_OF_PERICENTER": 333.9038, "MEAN_ANOMALY": 25.6165, "EPHEMERIS_TYPE": 0, "CLASSIFICATION_TYPE": "U", "NORAD_CAT_ID": 40799, "ELEMENT_SET_NO": 999, "REV_AT_EPOCH": 50019, "BSTAR": 0.00025656013, "MEAN_MOTION_DOT": 3.339e-05, "MEAN_MOTION_DDOT": 0}, "tle": {"line1": "1 40799U 93036BWC 25349.56266667  .00003339  00000+0  25656-3 0  9991", "line2": "2 40799  73.9261  92.6157 0119213 333.9038  25.6165 14.96688390500199"}}, "geometry": {"type": "Point", "coordinates": [-64.12776287994653, -56.342247916956715]}}, {"type": "Feature", "properties": {"norad_id": 40802, "name": "COSMOS 2251 DEB", "group": "cosmos-2251-debris", "lat": 13.634588088711105, "lon": 149.13888440941145, "alt_km": 666.5079368042852, "timestamp": "2025-12-16T17:51:11.330875+00:00", "meta": {"OBJECT_NAME": "COSMOS 2251 DEB", "OBJECT_ID": "1993-036BWF", "EPOCH": "2025-12-14T04:02:34.779840", "MEAN_MOTION": 14.7763135, "ECCENTRICITY": 0.00631025, "INCLINATION": 74.0398, "RA_OF_ASC_NODE": 150.2093, "ARG_OF_PERICENTER": 248.6873, "MEAN_ANOMALY": 110.7559, "EPHEMERIS_TYPE": 0, "CLASSIFICATION_TYPE": "U", "NORAD_CAT_ID": 40802, "ELEMENT_SET_NO": 999, "REV_AT_EPOCH": 64430, "BSTAR": 0.00084362537, "MEAN_MOTION_DOT": 6.208e-05, "MEAN_MOTION_DDOT": 0}, "tle": {"line1": "1 40802U 93036BWF 25348.16845810  .00006208  00000+0  84363-3 0  9992", "line2": "2 40802  74.0398 150.2093 0063102 248.6873 110.7559 14.77631350644309"}}, "geometry": {"type": "Point", "coordinates": [149.13888440941145, 13.634588088711105]}}, {"type": "Feature", "properties": {"norad_id": 40803, "name": "COSMOS 2251 DEB", "group": "cosmos-2251-debris", "lat": -23.09991666642332, "lon": -128.62456098046607, "alt_km": 709.8365369375251, "timestamp": "2025-12-16T17:51:11.330885+00:00", "meta": {"OBJECT_NAME": "COSMOS 2251 DEB", "OBJECT_ID": "1993-036BWG", "EPOCH": "2025-12-05T22:55:29.451072", "MEAN_MOTION": 14.51792027, "ECCENTRICITY": 0.00362816, "INCLINATION": 74.0122, "RA_OF_ASC_NODE": 64.6912, "ARG_OF_PERICENTER": 281.8159, "MEAN_ANOMALY": 77.8934, "EPHEMERIS_TYPE": 0, "CLASSIFICATION_TYPE": "U", "NORAD_CAT_ID": 40803, "ELEMENT_SET_NO": 999, "REV_AT_EPOCH": 58654, "BSTAR": 0.00062935795, "MEAN_MOTION_DOT": 2.525e-05, "MEAN_MOTION_DDOT": 0}, "tle": {"line1": "1 40803U 93036BWG 25339.95520198  .00002525  00000+0  62936-3 0  9999", "line2": "2 40803  74.0122  64.6912 0036281 281.8159  77.8934 14.51792027586549"}}, "geometry": {"type": "Point", "coordinates": [-128.62456098046607, -23.09991666642332]}}, {"type": "Feature", "properties": {"norad_id": 40808, "name": "COSMOS 2251 DEB", "group": "cosmos-2251-debris", "lat": -14.42138014350938, "lon": 133.52238122360828, "alt_km": 679.4388164383017, "timestamp": "2025-12-16T17:51:11.330896+00:00", "meta": {"OBJECT_NAME": "COSMOS 2251 DEB", "OBJECT_ID": "1993-036BWM", "EPOCH": "2025-12-14T10:26:23.947296", "MEAN_MOTION": 14.67521504, "ECCENTRICITY": 0.00090305, "INCLINATION": 74.0408, "RA_OF_ASC_NODE": 142.1983, "ARG_OF_PERICENTER": 179.2198, "MEAN_ANOMALY": 212.7135, "EPHEMERIS_TYPE": 0, "CLASSIFICATION_TYPE": "U", "NORAD_CAT_ID": 40808, "ELEMENT_SET_NO": 999, "REV_AT_EPOCH": 63644, "BSTAR": 0.0018628383, "MEAN_MOTION_DOT": 0.00010555, "MEAN_MOTION_DDOT": 0}, "tle": {"line1": "1 40808U 93036BWM 25348.43499939  .00010555  00000+0  18628-2 0  9995", "line2": "2 40808  74.0408 142.1983 0009030 179.2198 212.7135 14.67521504636441"}}, "geometry": {"type": "Point", "coordinates": [133.52238122360828, -14.42138014350938]}}, {"type": "Feature", "properties": {"norad_id": 40810, "name": "COSMOS 2251 DEB", "group": "cosmos-2251-debris", "lat": 42.17415022307738, "lon": -127.91707318729618, "alt_km": 691.7580700309936, "timestamp": "2025-12-16T17:51:11.330906+00:00", "meta": {"OBJECT_NAME": "COSMOS 2251 DEB", "OBJECT_ID": "1993-036BWP", "EPOCH": "2025-12-15T05:01:17.555808", "MEAN_MOTION": 14.58738297, "ECCENTRICITY": 0.00184081, "INCLINATION": 74.0368, "RA_OF_ASC_NODE": 70.0332, "ARG_OF_PERICENTER": 221.6033, "MEAN_ANOMALY": 138.3733, "EPHEMERIS_TYPE": 0, "CLASSIFICATION_TYPE": "U", "NORAD_CAT_ID": 40810, "ELEMENT_SET_NO": 999, "REV_AT_EPOCH": 61719, "BSTAR": 0.00049187083, "MEAN_MOTION_DOT": 2.273e-05, "MEAN_MOTION_DDOT": 0}, "tle": {"line1": "1 40810U 93036BWP 25349.20923097  .00002273  00000+0  49187-3 0  9994", "line2": "2 40810  74.0368  70.0332 0018408 221.6033 138.3733 14.58738297617192"}}, "geometry": {"type": "Point", "coordinates": [-127.91707318729618, 42.17415022307738]}}, {"type": "Feature", "properties": {"norad_id": 46271, "name": "COSMOS 2251 DEB", "group": "cosmos-2251-debris", "lat": -74.02861350973237, "lon": -17.206939737619628, "alt_km": 722.4196400518495, "timestamp": "2025-12-16T17:51:11.330916+00:00", "meta": {"OBJECT_NAME": "COSMOS 2251 DEB", "OBJECT_ID": "1993-036BWT", "EPOCH": "2025-12-14T23:15:23.859360", "MEAN_MOTION": 14.51434388, "ECCENTRICITY": 0.00401696, "INCLINATION": 74.0488, "RA_OF_ASC_NODE": 74.0218, "ARG_OF_PERICENTER": 195.2544, "MEAN_ANOMALY": 164.741, "EPHEMERIS_TYPE": 0, "CLASSIFICATION_TYPE": "U", "NORAD_CAT_ID": 46271, "ELEMENT_SET_NO": 999, "REV_AT_EPOCH": 84674, "BSTAR": 0.00028085517, "MEAN_MOTION_DOT": 1.104e-05, "MEAN_MOTION_DDOT": 0}, "tle": {"line1": "1 46271U 93036BWT 25348.96902615  .00001104  00000+0  28086-3 0  9993", "line2": "2 46271  74.0488  74.0218 0040169 195.2544 164.7410 14.51434388846748"}}, "geometry": {"type": "Point", "coordinates": [-17.206939737619628, -74.02861350973237]}}]}